[{"OBJECT_NAME":"STARLINK-36918","OBJECT_ID":"2026-037AA","EPOCH":"2026-03-15T07:19:41.119392","MEAN_MOTION":15.82017527,"ECCENTRICITY":0.00011509,"INCLINATION":42.9987,"RA_OF_ASC_NODE":163.8927,"ARG_OF_PERICENTER":242.3534,"MEAN_ANOMALY":117.7221,"EPHEMERIS_TYPE":0,"CLASSIFICATION_TYPE":"U","NORAD_CAT_ID":67956,"ELEMENT_SET_NO":999,"REV_AT_EPOCH":414,"BSTAR":0.0011487222,"MEAN_MOTION_DOT":0.00248432,"MEAN_MOTION_DDOT":0},{"OBJECT_NAME":"STARLINK-36829","OBJECT_ID":"2026-037AB","EPOCH":"2026-03-15T05:50:55.606560","MEAN_MOTION":15.81993291,"ECCENTRICITY":0.00018907,"INCLINATION":42.9987,"RA_OF_ASC_NODE":164.292,"ARG_OF_PERICENTER":246.691,"MEAN_ANOMALY":113.3763,"EPHEMERIS_TYPE":0,"CLASSIFICATION_TYPE":"U","NORAD_CAT_ID":67957,"ELEMENT_SET_NO":999,"REV_AT_EPOCH":413,"BSTAR":0.0017575471,"MEAN_MOTION_DOT":0.00386126,"MEAN_MOTION_DDOT":0},{"OBJECT_NAME":"STARLINK-36799","OBJECT_ID":"2026-037AC","EPOCH":"2026-03-15T07:18:36.341856","MEAN_MOTION":15.82030525,"ECCENTRICITY":0.00015676,"INCLINATION":42.9983,"RA_OF_ASC_NODE":163.8867,"ARG_OF_PERICENTER":289.1676,"MEAN_ANOMALY":70.9026,"EPHEMERIS_TYPE":0,"CLASSIFICATION_TYPE":"U","NORAD_CAT_ID":67958,"ELEMENT_SET_NO":999,"REV_AT_EPOCH":414,"BSTAR":0.0015675398,"MEAN_MOTION_DOT":0.00343193,"MEAN_MOTION_DDOT":0},{"OBJECT_NAME":"STARLINK-36834","OBJECT_ID":"2026-037AD","EPOCH":"2026-03-15T07:16:26.880960","MEAN_MOTION":15.82008694,"ECCENTRICITY":0.00026944,"INCLINATION":42.9985,"RA_OF_ASC_NODE":163.8738,"ARG_OF_PERICENTER":226.92,"MEAN_ANOMALY":133.1447,"EPHEMERIS_TYPE":0,"CLASSIFICATION_TYPE":"U","NORAD_CAT_ID":67959,"ELEMENT_SET_NO":999,"REV_AT_EPOCH":414,"BSTAR":0.0017334305,"MEAN_MOTION_DOT":0.00380868,"MEAN_MOTION_DDOT":0},{"OBJECT_NAME":"STARLINK-36841","OBJECT_ID":"2026-037AE","EPOCH":"2026-03-15T05:46:36.585408","MEAN_MOTION":15.82004665,"ECCENTRICITY":0.00019401,"INCLINATION":42.9983,"RA_OF_ASC_NODE":164.2667,"ARG_OF_PERICENTER":306.3887,"MEAN_ANOMALY":53.6805,"EPHEMERIS_TYPE":0,"CLASSIFICATION_TYPE":"U","NORAD_CAT_ID":67960,"ELEMENT_SET_NO":999,"REV_AT_EPOCH":413,"BSTAR":0.0018656816,"MEAN_MOTION_DOT":0.00411348,"MEAN_MOTION_DDOT":0},{"OBJECT_NAME":"STARLINK-36912","OBJECT_ID":"2026-038A","EPOCH":"2026-03-15T06:00:00.999648","MEAN_MOTION":15.75073831,"ECCENTRICITY":0.00020942,"INCLINATION":97.2859,"RA_OF_ASC_NODE":84.8289,"ARG_OF_PERICENTER":88.3517,"MEAN_ANOMALY":212.3707,"EPHEMERIS_TYPE":0,"CLASSIFICATION_TYPE":"U","NORAD_CAT_ID":67961,"ELEMENT_SET_NO":999,"REV_AT_EPOCH":409,"BSTAR":0.0010502615,"MEAN_MOTION_DOT":0.00158675,"MEAN_MOTION_DDOT":0},{"OBJECT_NAME":"STARLINK-36881","OBJECT_ID":"2026-038B","EPOCH":"2026-03-15T06:00:00.999648","MEAN_MOTION":15.75134235,"ECCENTRICITY":0.00012103,"INCLINATION":97.2857,"RA_OF_ASC_NODE":84.8313,"ARG_OF_PERICENTER":58.0587,"MEAN_ANOMALY":248.501,"EPHEMERIS_TYPE":0,"CLASSIFICATION_TYPE":"U","NORAD_CAT_ID":67962,"ELEMENT_SET_NO":999,"REV_AT_EPOCH":409,"BSTAR":0.00071829558,"MEAN_MOTION_DOT":0.00108113,"MEAN_MOTION_DDOT":0},{"OBJECT_NAME":"STARLINK-36357","OBJECT_ID":"2026-038C","EPOCH":"2026-03-15T06:00:00.999648","MEAN_MOTION":15.75158323,"ECCENTRICITY":9.822e-5,"INCLINATION":97.2859,"RA_OF_ASC_NODE":84.8353,"ARG_OF_PERICENTER":97.8094,"MEAN_ANOMALY":220.7525,"EPHEMERIS_TYPE":0,"CLASSIFICATION_TYPE":"U","NORAD_CAT_ID":67963,"ELEMENT_SET_NO":999,"REV_AT_EPOCH":409,"BSTAR":0.00031801583,"MEAN_MOTION_DOT":0.00047502,"MEAN_MOTION_DDOT":0},{"OBJECT_NAME":"STARLINK-36349","OBJECT_ID":"2026-038D","EPOCH":"2026-03-15T06:00:00.999648","MEAN_MOTION":15.7515784,"ECCENTRICITY":0.00010166,"INCLINATION":97.286,"RA_OF_ASC_NODE":84.8315,"ARG_OF_PERICENTER":56.1859,"MEAN_ANOMALY":254.3721,"EPHEMERIS_TYPE":0,"CLASSIFICATION_TYPE":"U","NORAD_CAT_ID":67964,"ELEMENT_SET_NO":999,"REV_AT_EPOCH":409,"BSTAR":0.00040491289,"MEAN_MOTION_DOT":0.0006061,"MEAN_MOTION_DDOT":0},{"OBJECT_NAME":"STARLINK-36806","OBJECT_ID":"2026-038E","EPOCH":"2026-03-15T06:00:00.999648","MEAN_MOTION":15.75154251,"ECCENTRICITY":0.00014548,"INCLINATION":97.2862,"RA_OF_ASC_NODE":84.836,"ARG_OF_PERICENTER":100.2114,"MEAN_ANOMALY":224.3502,"EPHEMERIS_TYPE":0,"CLASSIFICATION_TYPE":"U","NORAD_CAT_ID":67965,"ELEMENT_SET_NO":999,"REV_AT_EPOCH":409,"BSTAR":0.00043455171,"MEAN_MOTION_DOT":0.00065081,"MEAN_MOTION_DDOT":0},{"OBJECT_NAME":"STARLINK-36820","OBJECT_ID":"2026-038F","EPOCH":"2026-03-15T06:00:00.999648","MEAN_MOTION":15.75149305,"ECCENTRICITY":0.00012659,"INCLINATION":97.2877,"RA_OF_ASC_NODE":84.8387,"ARG_OF_PERICENTER":114.9967,"MEAN_ANOMALY":215.5593,"EPHEMERIS_TYPE":0,"CLASSIFICATION_TYPE":"U","NORAD_CAT_ID":67966,"ELEMENT_SET_NO":999,"REV_AT_EPOCH":409,"BSTAR":0.00045132064,"MEAN_MOTION_DOT":0.00067603,"MEAN_MOTION_DDOT":0},{"OBJECT_NAME":"STARLINK-36819","OBJECT_ID":"2026-038G","EPOCH":"2026-03-15T06:00:00.999648","MEAN_MOTION":15.65962668,"ECCENTRICITY":0.00013141,"INCLINATION":97.2839,"RA_OF_ASC_NODE":84.8309,"ARG_OF_PERICENTER":97.7115,"MEAN_ANOMALY":208.5275,"EPHEMERIS_TYPE":0,"CLASSIFICATION_TYPE":"U","NORAD_CAT_ID":67967,"ELEMENT_SET_NO":999,"REV_AT_EPOCH":409,"BSTAR":-0.026432938,"MEAN_MOTION_DOT":-0.02366422,"MEAN_MOTION_DDOT":0},{"OBJECT_NAME":"STARLINK-36812","OBJECT_ID":"2026-038H","EPOCH":"2026-03-15T06:00:00.999648","MEAN_MOTION":15.75127791,"ECCENTRICITY":0.00012827,"INCLINATION":97.288,"RA_OF_ASC_NODE":84.8423,"ARG_OF_PERICENTER":86.7367,"MEAN_ANOMALY":255.8304,"EPHEMERIS_TYPE":0,"CLASSIFICATION_TYPE":"U","NORAD_CAT_ID":67968,"ELEMENT_SET_NO":999,"REV_AT_EPOCH":409,"BSTAR":0.00067103817,"MEAN_MOTION_DOT":0.00100878,"MEAN_MOTION_DDOT":0},{"OBJECT_NAME":"STARLINK-36709","OBJECT_ID":"2026-038J","EPOCH":"2026-03-15T06:00:00.999648","MEAN_MOTION":15.75175113,"ECCENTRICITY":0.00016327,"INCLINATION":97.2867,"RA_OF_ASC_NODE":84.8488,"ARG_OF_PERICENTER":73.1681,"MEAN_ANOMALY":283.385,"EPHEMERIS_TYPE":0,"CLASSIFICATION_TYPE":"U","NORAD_CAT_ID":67969,"ELEMENT_SET_NO":999,"REV_AT_EPOCH":409,"BSTAR":0.00015191268,"MEAN_MOTION_DOT":0.00022575,"MEAN_MOTION_DDOT":0},{"OBJECT_NAME":"STARLINK-36319","OBJECT_ID":"2026-038K","EPOCH":"2026-03-15T06:00:00.999648","MEAN_MOTION":15.75131312,"ECCENTRICITY":0.00016868,"INCLINATION":97.2881,"RA_OF_ASC_NODE":84.8451,"ARG_OF_PERICENTER":128.7914,"MEAN_ANOMALY":221.7863,"EPHEMERIS_TYPE":0,"CLASSIFICATION_TYPE":"U","NORAD_CAT_ID":67970,"ELEMENT_SET_NO":999,"REV_AT_EPOCH":406,"BSTAR":0.00055763356,"MEAN_MOTION_DOT":0.00083653,"MEAN_MOTION_DDOT":0},{"OBJECT_NAME":"STARLINK-36710","OBJECT_ID":"2026-038L","EPOCH":"2026-03-15T06:00:00.999648","MEAN_MOTION":15.75172937,"ECCENTRICITY":9.299e-5,"INCLINATION":97.2864,"RA_OF_ASC_NODE":84.8531,"ARG_OF_PERICENTER":94.6919,"MEAN_ANOMALY":271.8757,"EPHEMERIS_TYPE":0,"CLASSIFICATION_TYPE":"U","NORAD_CAT_ID":67971,"ELEMENT_SET_NO":999,"REV_AT_EPOCH":409,"BSTAR":1.3362703e-5,"MEAN_MOTION_DOT":1.862e-5,"MEAN_MOTION_DDOT":0}]
