STARLINK-36918          
1 67956U 26037AA  26074.30533703  .00248432  00000+0  11487-2 0  9999
2 67956  42.9987 163.8927 0001150 242.3534 117.7221 15.82017527  4148
STARLINK-36829          
1 67957U 26037AB  26074.24369915  .00386126  00000+0  17575-2 0  9992
2 67957  42.9987 164.2920 0001890 246.6910 113.3763 15.81993291  4135
STARLINK-36799          
1 67958U 26037AC  26074.30458729  .00343193  00000+0  15675-2 0  9998
2 67958  42.9983 163.8867 0001567 289.1676  70.9026 15.82030525  4143
STARLINK-36834          
1 67959U 26037AD  26074.30308890  .00380868  00000+0  17334-2 0  9996
2 67959  42.9985 163.8738 0002694 226.9200 133.1447 15.82008694  4148
STARLINK-36841          
1 67960U 26037AE  26074.24070122  .00411348  00000+0  18657-2 0  9992
2 67960  42.9983 164.2667 0001940 306.3887  53.6805 15.82004665  4138
STARLINK-36912          
1 67961U 26038A   26074.25001157  .00158675  00000+0  10503-2 0  9990
2 67961  97.2859  84.8289 0002094  88.3517 212.3707 15.75073831  4092
STARLINK-36881          
1 67962U 26038B   26074.25001157  .00108113  00000+0  71830-3 0  9994
2 67962  97.2857  84.8313 0001210  58.0587 248.5010 15.75134235  4093
STARLINK-36357          
1 67963U 26038C   26074.25001157  .00047502  00000+0  31802-3 0  9994
2 67963  97.2859  84.8353 0000982  97.8094 220.7525 15.75158323  4096
STARLINK-36349          
1 67964U 26038D   26074.25001157  .00060610  00000+0  40491-3 0  9994
2 67964  97.2860  84.8315 0001016  56.1859 254.3721 15.75157840  4097
STARLINK-36806          
1 67965U 26038E   26074.25001157  .00065081  00000+0  43455-3 0  9995
2 67965  97.2862  84.8360 0001454 100.2114 224.3502 15.75154251  4098
STARLINK-36820          
1 67966U 26038F   26074.25001157  .00067603  00000+0  45132-3 0  9992
2 67966  97.2877  84.8387 0001265 114.9967 215.5593 15.75149305  4098
STARLINK-36819          
1 67967U 26038G   26074.25001157 -.02366422  00000+0 -26433-1 0  9999
2 67967  97.2839  84.8309 0001314  97.7115 208.5275 15.65962668  4092
STARLINK-36812          
1 67968U 26038H   26074.25001157  .00100878  00000+0  67104-3 0  9999
2 67968  97.2880  84.8423 0001282  86.7367 255.8304 15.75127791  4096
STARLINK-36709          
1 67969U 26038J   26074.25001157  .00022575  00000+0  15191-3 0  9996
2 67969  97.2867  84.8488 0001632  73.1681 283.3850 15.75175113  4094
STARLINK-36319          
1 67970U 26038K   26074.25001157  .00083653  00000+0  55763-3 0  9991
2 67970  97.2881  84.8451 0001686 128.7914 221.7863 15.75131312  4067
STARLINK-36710          
1 67971U 26038L   26074.25001157  .00001862  00000+0  13363-4 0  9995
2 67971  97.2864  84.8531 0000929  94.6919 271.8757 15.75172937  4092
